1 21594U 90065K   09241.68950083 -.00000167  00000-0  37558-3 0   803
2 21594  16.9513  68.1051 7061575 118.9292 327.9070  2.43992856158417
1 21598U 75052HS  09243.11440078 -.00000003  00000-0  10000-3 0   367
2 21598  99.5912 298.8162 0355138  43.1719 319.6479 12.82659146857292
1 21599U 75052HT  09243.40613736 -.00000009  00000-0  10000-3 0  4802
2 21599  99.8321 219.7201 0451487 347.3050  11.6869 12.64482683842181
1 21601U 75052HV  09243.54663001 -.00000010  00000-0  10000-3 0    78
2 21601  99.7844  92.4098 0543129 227.9541 127.4102 12.48491195830506
1 21602U 75052HW  09243.06322839  .00000014  00000-0  10000-3 0   643
2 21602  99.8424 302.1282 0089540 212.7593 146.8374 13.42313935886810
1 21610U 91050F   09243.82354036  .00000061  00000-0  34448-4 0  1114
2 21610  98.6437 209.9023 0003657 121.1691 238.9857 14.39089896950481
1 21622U 87036K   09243.03368469 -.00000042  00000-0  10000-3 0  5867
2 21622  64.8086 267.4627 0477329  56.8669 308.8224 11.84188543671984
1 21623U 87036L   09242.97845785  .00001462  00000-0  11555-2 0  5738
2 21623  62.8044 204.4005 3340610 336.3524  11.3308  8.26730607581074
1 21634U 90065L   09242.10536838 -.00000130  00000-0  23990-3 0  9291
2 21634  17.6634 230.8037 7019823  85.0785 344.9591  2.57731865157047
1 21635U 90065M   09242.15432003 -.00000228  00000-0  18987-3 0   150
2 21635  17.8274 199.7659 6987187 133.4784 311.2542  2.60971648169401
1 21636U 90065N   09238.93640867 -.00000084  00000-0 -24329-3 0  4670
2 21636  17.4913 209.6109 7148538 183.3581 166.3275  2.33128577152665
1 21637U 90065P   09241.93399361  .00000145  00000-0  10943-3 0  1091
2 21637  17.7357 135.1847 6960788 259.0583  21.9363  2.63065343160100
1 21639U 91054B   09242.73988122  .00000097  00000-0  10000-3 0  5016
2 21639  10.0249  54.7028 0008114 335.8781  47.3181  1.00279601 66219
1 21640U 91054C   09242.82925616  .00000361  00000-0  20382-3 0  5217
2 21640  26.3273 168.5810 6961726 219.3480  60.3723  2.66948743164013
1 21641U 91054D   09240.29787771 -.00000296  00000-0  10000-3 0  7378
2 21641  13.5559  36.9510 0035749 183.5512 176.4796  1.00344603 64394
1 21648U 89101G   09238.86047171 -.00000105  00000-0  10000-3 0  2721
2 21648  12.9012  34.1739 0027462 159.7919 200.3741  0.97850158 56031
1 21653U 91055A   09241.88672587 -.00000321  00000-0  00000+0 0  8203
2 21653   4.6222  72.4602 0001181 178.0950 182.1316  0.99327795 66035
1 21654U 91055B   09242.62908458 -.00000823  00000-0 -17072-3 0  3772
2 21654   6.9230  97.1075 6014107 129.4589 300.9799  4.02279861196479
1 21655U 91056A   09243.51057098  .00000051  00000-0  10000-3 0  6473
2 21655  82.5560 153.2979 0014182 358.4804   1.6273 13.17020240867540
1 21656U 91056B   09242.91547901  .00000051  00000-0  10000-3 0  3550
2 21656  82.5546 153.2300 0013965   1.7277 358.3890 13.17009710867482
1 21660U 63014FG  09242.48282477  .00000014  00000-0  10000-3 0  7074
2 21660  86.0920  55.6972 2015218  84.2722 298.3116  8.80783642528898
1 21666U 91059A   09243.28301940  .00000030  00000-0  16033-4 0  3848
2 21666  82.9093 343.1393 0025002 344.1267  15.9102 13.73132583903226
1 21667U 91059B   09243.79236908  .00000048  00000-0  35208-4 0  9015
2 21667  82.9082 328.3942 0019324 269.6339  90.2602 13.74884869904540
1 21668U 91060A   09237.12397180 -.00000055  00000-0  10000-3 0  3316
2 21668   8.8409  48.7131 0004987   8.8789 351.2394  0.98789817 68712
1 21674U 75052JA  09243.84906237  .00000100  00000-0  70124-4 0  2066
2 21674 100.0816 199.9320 0172020 325.6342  33.3799 14.14970070936452
1 21677U 75052JD  09242.85336575 -.00000002  00000-0  10000-3 0  5691
2 21677  99.9076  15.1526 0480397  56.9194 307.7012 12.70593818848970
1 21678U 75052JE  09241.90225522  .00000218  00000-0  53000-3 0  8638
2 21678  99.9871  48.3898 0379625  66.8494 297.2176 13.08526602871269
1 21680U 75052JG  09242.77322735 -.00000009  00000-0  10000-3 0  5742
2 21680  99.5950 188.1324 0379474 318.5594  38.6898 12.71468403844185
1 21682U 75052JJ  09242.83070674 -.00000012  00000-0  10000-3 0   337
2 21682  99.4444 208.5912 0887640 341.6412  15.3559 11.67118643776642
1 21686U 75052JN  09243.39122615  .00000652  00000-0  56468-3 0  3886
2 21686  99.9947  39.8924 0220279 347.4477  12.1239 13.79903524900667
1 21688U 91061A   09243.59355780  .00000283  00000-0  23226-3 0  5595
2 21688  98.7022 250.5326 0023729 282.4661  77.3860 13.96921395812156
1 21689U 91061B   09243.86410614 -.00000065  00000-0 -11864-4 0  9943
2 21689  99.3233 189.1653 0026931 311.8219  48.0658 14.01530789921007
1 21691U 91045E   09243.44017462  .00000145  00000-0  39150-4 0  8401
2 21691  89.8007  31.5640 0018776 105.4894 254.8381 14.43387632953584
1 21692U 65108W   09240.19022486  .00000151  00000-0  10202-2 0  7191
2 21692  27.8763 163.2813 6222136  35.4808 353.1238  3.49694425190268
1 21695U 91062B   09243.85525346  .00001088  00000-0  40049-4 0  5452
2 21695  31.3260  68.0838 0080179  76.9874 283.9711 15.20599292985488
1 21701U 91063B   09242.92681499  .00002383  00000-0  37369-4 0  7711
2 21701  56.9724  36.5418 0069991 322.3934  37.2242 15.55779953990850
1 21702U 91064A   09242.57352139  .00000103  00000-0  10000-3 0  3222
2 21702  11.9678  38.8829 0002878 246.2130 113.8402  1.00181022 65822
1 21703U 91064B   09242.87896568 -.00000276  00000-0  10000-3 0  9874
2 21703  12.0411  39.1884 0006403 241.4287 118.5902  0.99889411 58871
1 21706U 91065A   09242.52218641  .00000109  00000-0  33209-4 0  4146
2 21706  62.3809  49.4395 7494060 276.9396  11.2495  2.00562530131530
1 21709U 91065D   09243.50909137 -.00001295  00000-0  13773-4 0  3449
2 21709  62.2153  89.6841 7524332 270.8912  12.5900  1.96961272128912
1 21711U 91041D   09242.79927882  .00000080  00000-0  33022-4 0  6209
2 21711  74.0172  14.1903 0013410 210.9513 149.0840 14.41478265954414
1 21712U 91045F   09243.41955772  .00000129  00000-0  49400-4 0  6989
2 21712  89.2812  16.3075 0143634  76.9650 284.7526 14.19007842938731
1 21721U 70025QG  09242.84292016  .00000029  00000-0  10000-3 0  7056
2 21721 100.1094 204.2911 0004736 229.6869 130.3889 13.61678903888179
1 21722U 91009BY  09242.62097155 -.00000004  00000-0  10000-3 0  4955
2 21722  74.0527 276.4905 0369892  49.5005 313.7614 11.77008071770342
1 21723U 71015DW  09239.88652241 -.00000070  00000-0  12219-4 0  4204
2 21723  65.6937  58.9680 0545475 274.7578  79.6698 13.96589390898620
1 21724U 91009BZ  09243.50955428 -.00000003  00000-0  10000-3 0  4916
2 21724  73.9789 292.5630 0208056  32.6832 328.6875 12.20141652798561
1 21726U 91067A   09242.12306120  .00000069  00000-0  10000-3 0  1916
2 21726   5.9444  69.6157 0003276 172.8808 187.3153  0.99168063 56430
1 21727U 91067B   09242.82697120  .00000021  00000-0  24913-4 0  4254
2 21727   4.3976  50.0677 7195383  10.1376 358.8427  2.30244864112115
1 21728U 91068A   09242.65433237  .00000029  00000-0  10000-3 0  2341
2 21728  82.5762 277.8541 0005580  46.6651 313.4904 12.63114325826426
1 21729U 91068B   09242.95861965  .00000029  00000-0  10000-3 0  3417
2 21729  82.5809 274.2679 0003491 334.4871  25.6048 12.63903098826977
1 21730U 91068C   09242.55091438  .00000029  00000-0  10000-3 0  2627
2 21730  82.5778 258.6106 0012014 223.4847 136.5298 12.65894894828220
1 21731U 91068D   09242.94997523  .00000029  00000-0  10000-3 0  2384
2 21731  82.5829 270.7544 0006603 294.0666  65.9738 12.64552106827396
1 21732U 91068E   09242.95889404  .00000029  00000-0  10000-3 0  2621
2 21732  82.5729 260.7724 0008507 261.9570  98.0557 12.65125044827762
1 21733U 91068F   09243.53813120  .00000029  00000-0  10000-3 0  2247
2 21733  82.5863 288.4076 0008399  85.5220 274.6831 12.62328731826031
1 21734U 91068G   09242.84515483  .00000027  00000-0  10000-3 0  1687
2 21734  82.5834 344.8031 0076853  29.9601 330.5850 12.54391865820860
1 21750U 91009CQ  09243.44136799 -.00000004  00000-0  10000-3 0  6902
2 21750  74.0788 243.3376 0104271 243.0654 115.9733 12.27423297825001
1 21752U 83127J   09243.56484374 -.00000050  00000-0  10000-3 0  1988
2 21752  53.7463  81.2433 1205254 232.5187 122.2803 10.92312695625475
1 21754U 75052JQ  09242.62008910  .00000007  00000-0  10000-3 0  4548
2 21754  99.8794 307.0581 0075651 294.1596  65.1660 13.33465271879600
1 21759U 91074A   09241.19424970 -.00000210  00000-0  10000-3 0  9018
2 21759  12.0280  41.1541 0016538  97.1839 263.0845  0.98444725 64635
1 21762U 91074D   09242.82512534 -.00000347  00000-0  10000-3 0  8736
2 21762  11.8749  40.1879 0001503 325.0383  35.0383  0.99707922 58518
1 21765U 91075A   09243.70377713  .00000115  00000-0  10000-3 0  8301
2 21765   4.6678  71.3322 0000519 357.4831 212.0452  1.00274423 65176
1 21766U 91075B   09243.46015846  .00000440  00000-0  23116-3 0  3950
2 21766   7.1379 182.4855 5710720  98.4449 326.5319  4.41715535201191
1 21777U 90065Q   09241.38240931 -.00000022  00000-0  00000-0 0  7331
2 21777  19.0546 346.0095 6949440 253.2485  25.2987  2.39808607135929
1 21778U 90065R   09242.40581979 -.00000084  00000-0  29503-4 0   284
2 21778  18.2452   1.6450 7088629 198.1235 110.7499  2.47782674158297
1 21779U 91077A   09242.94775161  .00000029  00000-0  10000-3 0  5055
2 21779  82.6060 189.8880 0012031 354.3430   5.7524 12.64771364821781
1 21780U 91077B   09242.96748384  .00000029  00000-0  10000-3 0  2446
2 21780  82.5951 197.1313 0005731  43.4563 316.6979 12.63305072820837
1 21781U 91077C   09242.92615535  .00000029  00000-0  10000-3 0  1667
2 21781  82.6019 194.3512 0008858   6.6949 353.4256 12.64123386821358
1 21782U 91077D   09242.88176869  .00000029  00000-0  10000-3 0  2565
2 21782  82.5954 180.0717 0014771 335.8270  24.2124 12.65380765822164
1 21783U 91077E   09242.92474111  .00000029  00000-0  10000-3 0  1673
2 21783  82.6016 177.7114 0018049 304.6637  55.2753 12.66159763822684
1 21784U 91077F   09243.91135511  .00000029  00000-0  10000-3 0  1357
2 21784  82.6034 208.1291 0002596 102.0533 258.0843 12.62459382820413
1 21785U 91077G   09243.48630874  .00000027  00000-0  10000-3 0   731
2 21785  82.5926 258.0875 0040194  67.0737 293.4581 12.55048567815571
